{
  "norad_id": 62083,
  "name": "KINEIS-5E",
  "history": [
    {
      "epoch": "2026-03-27T11:42:45.220032Z",
      "apogee_km": 657.5121805167983,
      "perigee_km": 649.729430977397,
      "latitude_deg": 6.572236712241228e-05,
      "longitude_deg": -112.89453362003697,
      "height_km": 658.4103323814335,
      "semi_major_axis_km": 7031.757805747097,
      "eccentricity": 0.0005534,
      "inclination_deg": 97.9358,
      "raan_deg": 247.716,
      "arg_perigee_deg": 117.3564,
      "mean_anomaly_deg": 242.8208,
      "mean_motion_rev_day": 14.72335915
    }
  ]
}